STARLINK-37491          
1 69166U 26111U   26158.50004630  .00041925  00000+0  24424-3 0  9998
2 69166  53.1594 200.1405 0000851  83.9127 112.6471 15.78044190  3995
STARLINK-37474          
1 69167U 26111V   26158.50004630  .00070641  00000+0  40781-3 0  9990
2 69167  53.1596 200.1105 0001128  82.8465 128.2345 15.78028530  3999
STARLINK-37469          
1 69168U 26111W   26158.50004630 -.02446752  00000+0 -22421-1 0  9994
2 69168  53.1598 200.1175 0001420  68.3217 139.1290 15.70339663  3992
STARLINK-37515          
1 69169U 26111X   26158.50004630  .00034140  00000+0  19972-3 0  9994
2 69169  53.1598 200.0911 0001293  88.0116 132.3830 15.78050138  3995
STARLINK-37437          
1 69170U 26111Y   26157.69752450  .00149746  00000+0  74851-3 0  9991
2 69170  53.1586 204.0510 0000732  63.0627 297.0470 15.80891266  2604
STARLINK-37392          
1 69171U 26111Z   26158.50004630  .00086616  00000+0  49859-3 0  9999
2 69171  53.1595 200.0110 0001149  41.7026 217.3592 15.78012424  3997
STARLINK-37472          
1 69172U 26111AA  26158.45181387 -.01066790  00000+0 -66047-2 0  9990
2 69172  53.1584 200.2189 0001928  18.9172 341.1921 15.78763072  2721
STARLINK-37461          
1 69173U 26111AB  26158.50004630 -.02538959  00000+0 -21609-1 0  9998
2 69173  53.1597 200.0775 0001241  78.1018 148.4681 15.72203626  3999
STARLINK-37333          
1 69174U 26111AC  26158.50004630  .00043284  00000+0  25200-3 0  9990
2 69174  53.1592 200.0720 0001065  92.2630 137.3136 15.78042476  3998
STARLINK-37385          
1 69175U 26111AD  26158.50004630 -.02545564  00000+0 -19906-1 0  9997
2 69175  53.1597 200.0515 0001155  84.4441 154.7442 15.74167097  3995
STARLINK-37414          
1 69176U 26111AE  26158.50004630 -.00018809  00000+0 -10466-3 0  9997
2 69176  53.1593 200.0203 0001231  77.1817 177.2267 15.78065592  3993
STRIX-7                 
1 69177U 26112A   26158.52472926  .00004405  00000+0  35204-3 0  9990
2 69177  44.9065 243.1972 0024144 352.6627   7.3888 15.01385926  2426
SHENZHOU-23 (SZ-23)     
1 69180U 26113A   26157.67381585  .00028669  00000+0  34211-3 0  9995
2 69180  41.4692  25.9625 0009150 355.7318   4.3441 15.60361832291258
STARLINK-37380          
1 69182U 26114A   26158.50004630  .00012792  00000+0  77399-4 0  9999
2 69182  53.1587 250.8562 0001242 108.7351  83.2408 15.78058312  3254
STARLINK-37089          
1 69183U 26114B   26158.50004630 -.00008675  00000+0 -46129-4 0  9994
2 69183  53.1589 250.8454 0001176  75.8916 121.3815 15.78070517  3251
STARLINK-37428          
1 69184U 26114C   26158.50004630 -.00130346  00000+0 -75623-3 0  9996
2 69184  53.1588 250.8293 0001075  72.8724 132.3946 15.78116493  3255
STARLINK-37237          
1 69185U 26114D   26158.50004630  .00090648  00000+0  52182-3 0  9990
2 69185  53.1589 250.7962 0001281 101.1967 119.7795 15.77993378  3258
STARLINK-37365          
1 69186U 26114E   26158.50004630  .00006954  00000+0  43850-4 0  9991
2 69186  53.1588 250.7998 0001226  80.2501 138.8892 15.78063269  3255
STARLINK-37209          
1 69187U 26114F   26158.50004630 -.00039114  00000+0 -22220-3 0  9995
2 69187  53.1589 250.7912 0001219  81.9213 141.6053 15.78079591  3259
STARLINK-37359          
1 69188U 26114G   26158.50004630  .00039102  00000+0  22804-3 0  9999
2 69188  53.1589 250.7858 0001082  84.8731 141.1679 15.78052509  3253
STARLINK-37440          
1 69189U 26114H   26158.50004630 -.00311851  00000+0 -16192-2 0  9998
2 69189  53.1582 250.3831 0000727  90.1405 330.5576 15.81071110  3250
STARLINK-37282          
1 69190U 26114J   26158.50004630 -.00194386  00000+0 -99921-3 0  9994
2 69190  53.1586 250.7247 0001168  93.9160 161.7188 15.80966942  3258
STARLINK-37422          
1 69191U 26114K   26158.50004630  .00002688  00000+0  17140-4 0  9990
2 69191  53.1590 250.7044 0001339 126.7117 138.7483 15.80895840  3256
STARLINK-37424          
1 69192U 26114L   26158.50004630 -.02218403  00000+0 -13056-1 0  9998
2 69192  53.1591 250.7165 0001048  89.6598 170.2102 15.80548200  3253
STARLINK-36666          
1 69193U 26114M   26158.50004630  .00005114  00000+0  29393-4 0  9992
2 69193  53.1589 250.7072 0001434  87.7195 176.4664 15.80906333  3255
STARLINK-37355          
1 69194U 26114N   26158.50004630  .00026634  00000+0  13789-3 0  9994
2 69194  53.1587 250.6993 0001189  85.8176 182.6418 15.80900983  3251
STARLINK-37166          
1 69195U 26114P   26158.50004630 -.00007107  00000+0 -32480-4 0  9991
2 69195  53.1588 250.6808 0001240  81.7691 195.2739 15.80881395  3254
