OBJECT_NAME,OBJECT_ID,EPOCH,MEAN_MOTION,ECCENTRICITY,INCLINATION,RA_OF_ASC_NODE,ARG_OF_PERICENTER,MEAN_ANOMALY,EPHEMERIS_TYPE,CLASSIFICATION_TYPE,NORAD_CAT_ID,ELEMENT_SET_NO,REV_AT_EPOCH,BSTAR,MEAN_MOTION_DOT,MEAN_MOTION_DDOT
STARLINK-37491,2026-111U,2026-06-07T12:00:04.000320,15.78044190,.0000851,53.1594,200.1405,83.9127,112.6471,0,U,69166,999,399,.24424E-3,.41925E-3,0
STARLINK-37474,2026-111V,2026-06-07T12:00:04.000320,15.78028530,.0001128,53.1596,200.1105,82.8465,128.2345,0,U,69167,999,399,.40781E-3,.70641E-3,0
STARLINK-37469,2026-111W,2026-06-07T12:00:04.000320,15.70339663,.000142,53.1598,200.1175,68.3217,139.1290,0,U,69168,999,399,-.22421E-1,-.2446752E-1,0
STARLINK-37515,2026-111X,2026-06-07T12:00:04.000320,15.78050138,.0001293,53.1598,200.0911,88.0116,132.3830,0,U,69169,999,399,.19972E-3,.3414E-3,0
STARLINK-37437,2026-111Y,2026-06-06T16:44:26.116800,15.80891266,.00007328,53.1586,204.0510,63.0627,297.0470,0,U,69170,999,260,.74850576E-3,.149746E-2,0
STARLINK-37392,2026-111Z,2026-06-07T12:00:04.000320,15.78012424,.0001149,53.1595,200.0110,41.7026,217.3592,0,U,69171,999,399,.49859E-3,.86616E-3,0
STARLINK-37472,2026-111AA,2026-06-07T10:50:36.718368,15.78763072,.0001928,53.1584,200.2189,18.9172,341.1921,0,U,69172,999,272,-.66047E-2,-.106679E-1,0
STARLINK-37461,2026-111AB,2026-06-07T12:00:04.000320,15.72203626,.0001241,53.1597,200.0775,78.1018,148.4681,0,U,69173,999,399,-.21609E-1,-.2538959E-1,0
STARLINK-37333,2026-111AC,2026-06-07T12:00:04.000320,15.78042476,.0001065,53.1592,200.0720,92.2630,137.3136,0,U,69174,999,399,.252E-3,.43284E-3,0
STARLINK-37385,2026-111AD,2026-06-07T12:00:04.000320,15.74167097,.0001155,53.1597,200.0515,84.4441,154.7442,0,U,69175,999,399,-.19906E-1,-.2545564E-1,0
STARLINK-37414,2026-111AE,2026-06-07T12:00:04.000320,15.78065592,.0001231,53.1593,200.0203,77.1817,177.2267,0,U,69176,999,399,-.10466E-3,-.18809E-3,0
STRIX-7,2026-112A,2026-06-07T12:35:36.608064,15.01385926,.0024144,44.9065,243.1972,352.6627,7.3888,0,U,69177,999,242,.35204E-3,.4405E-4,0
SHENZHOU-23 (SZ-23),2026-113A,2026-06-06T16:10:17.689440,15.60361832,.00091504,41.4692,25.9625,355.7318,4.3441,0,U,69180,999,29125,.3421058E-3,.28669E-3,0
STARLINK-37380,2026-114A,2026-06-07T12:00:04.000320,15.78058312,.0001242,53.1587,250.8562,108.7351,83.2408,0,U,69182,999,325,.77399E-4,.12792E-3,0
STARLINK-37089,2026-114B,2026-06-07T12:00:04.000320,15.78070517,.0001176,53.1589,250.8454,75.8916,121.3815,0,U,69183,999,325,-.46129E-4,-.8675E-4,0
STARLINK-37428,2026-114C,2026-06-07T12:00:04.000320,15.78116493,.0001075,53.1588,250.8293,72.8724,132.3946,0,U,69184,999,325,-.75623E-3,-.130346E-2,0
STARLINK-37237,2026-114D,2026-06-07T12:00:04.000320,15.77993378,.0001281,53.1589,250.7962,101.1967,119.7795,0,U,69185,999,325,.52182E-3,.90648E-3,0
STARLINK-37365,2026-114E,2026-06-07T12:00:04.000320,15.78063269,.0001226,53.1588,250.7998,80.2501,138.8892,0,U,69186,999,325,.4385E-4,.6954E-4,0
STARLINK-37209,2026-114F,2026-06-07T12:00:04.000320,15.78079591,.0001219,53.1589,250.7912,81.9213,141.6053,0,U,69187,999,325,-.2222E-3,-.39114E-3,0
STARLINK-37359,2026-114G,2026-06-07T12:00:04.000320,15.78052509,.0001082,53.1589,250.7858,84.8731,141.1679,0,U,69188,999,325,.22804E-3,.39102E-3,0
STARLINK-37440,2026-114H,2026-06-07T12:00:04.000320,15.81071110,.0000727,53.1582,250.3831,90.1405,330.5576,0,U,69189,999,325,-.16192E-2,-.311851E-2,0
STARLINK-37282,2026-114J,2026-06-07T12:00:04.000320,15.80966942,.0001168,53.1586,250.7247,93.9160,161.7188,0,U,69190,999,325,-.99921E-3,-.194386E-2,0
STARLINK-37422,2026-114K,2026-06-07T12:00:04.000320,15.80895840,.0001339,53.1590,250.7044,126.7117,138.7483,0,U,69191,999,325,.1714E-4,.2688E-4,0
STARLINK-37424,2026-114L,2026-06-07T12:00:04.000320,15.80548200,.0001048,53.1591,250.7165,89.6598,170.2102,0,U,69192,999,325,-.13056E-1,-.2218403E-1,0
STARLINK-36666,2026-114M,2026-06-07T12:00:04.000320,15.80906333,.0001434,53.1589,250.7072,87.7195,176.4664,0,U,69193,999,325,.29393E-4,.5114E-4,0
STARLINK-37355,2026-114N,2026-06-07T12:00:04.000320,15.80900983,.0001189,53.1587,250.6993,85.8176,182.6418,0,U,69194,999,325,.13789E-3,.26634E-3,0
STARLINK-37166,2026-114P,2026-06-07T12:00:04.000320,15.80881395,.000124,53.1588,250.6808,81.7691,195.2739,0,U,69195,999,325,-.3248E-4,-.7107E-4,0
